FENGYUN 1C DEB          
1 35225U 99025DQH 17345.01841892  .00001388  00000-0  71132-3 0  9992
2 35225 103.2916  66.3733 0061405 146.7543 213.7494 14.17544060189656
